HST                     
1 20580U 90037B   26201.71489370  .00003416  00000+0  10306-3 0  9990
2 20580  28.4721 211.3592 0002084 156.9288 203.1402 15.31093862793714
POLAR                   
1 23802U 96013A   26200.38703378  .00000162  00000+0  00000+0 0  9990
2 23802  79.8986 226.6697 6502662 207.9705  92.0144  1.29846046145278
SWAS                    
1 25560U 98071A   26201.87309176  .00002068  00000+0  13427-3 0  9990
2 25560  69.8945 140.6389 0007536 224.0435 136.0129 15.09770437502353
CXO                     
1 25867U 99040B   26203.75757577  .00000588  00000+0  00000+0 0  9992
2 25867  56.6521 115.7083 7776511 309.9609   0.5640  0.37802015 17458
XMM-NEWTON              
1 25989U 99066A   26201.25992622 -.00000007  00000+0  00000+0 0  9997
2 25989  64.3074 282.5600 4664570  64.3171   0.0365  0.50127970 23163
TERRA                   
1 25994U 99068A   26201.85775983  .00000208  00000+0  51225-4 0  9992
2 25994  97.9437 250.0658 0003606 111.6949   3.2131 14.61126439414525
CLUSTER II-FM7 (SAMBA)  
1 26410U 00041A   26201.60182196  .00010308 -30415-5  00000+0 0  9992
2 26410 149.8020  56.9135 9091714 274.4939 359.4480  0.44850593 20460
CLUSTER II-FM8 (TANGO)  
1 26464U 00045B   26199.95355120  .00014903 -89736-5  00000+0 0  9993
2 26464 150.0065  57.8200 9095390 275.2268   2.0610  0.44421506 20456
ODIN                    
1 26702U 01007A   26201.08652123  .00328733  43055-4  97864-3 0  9997
2 26702  97.3670 244.4948 0005124 155.1636 204.9886 15.92415357394606
TIMED                   
1 26998U 01055B   26201.32615627  .00000610  00000+0  58910-4 0  9991
2 26998  74.0670 168.2903 0002355 294.6968  65.3972 14.95350961335778
SORCE                   
1 27651U 03004A   26201.34466207  .00001399  00000+0  11043-3 0  9994
2 27651  39.9917  72.4763 0018717 288.9832  70.8934 15.03857228276898
SWIFT                   
1 28485U 04047A   26201.48072621  .00042132  00000+0  30446-3 0  9994
2 28485  20.5519 287.4489 0002642  83.1117 276.9630 15.71579695192109
HINODE (SOLAR-B)        
1 29479U 06041A   26201.02449976  .00000275  00000+0  55600-4 0  9997
2 29479  98.0548 216.6933 0017428 178.9775 181.1469 14.68661504 59693
FGRST (GLAST)           
1 33053U 08029A   26201.68628735  .00001982  00000+0  65848-4 0  9993
2 33053  25.5829 331.8542 0008092   5.5378 354.5249 15.24095088   802
SDO                     
1 36395U 10005A   26200.24111708 -.00000094  00000+0  00000+0 0  9998
2 36395  34.7163  85.8540 0001721  43.5863 152.2121  1.00277469 60389
CRYOSAT 2               
1 36508U 10013A   26201.85239984  .00000051  00000+0  11803-4 0  9998
2 36508  92.0355 285.4858 0002471  98.8331 261.3156 14.51899443862967
X-SAT                   
1 37389U 11015C   26201.85379891 -.00000066  00000+0 -10517-4 0  9990
2 37389  98.3539 177.2774 0012789 242.4952 117.4929 14.25214170792478
GCOM-W1 (SHIZUKU)       
1 38337U 12025A   26201.81780396  .00000217  00000+0  58301-4 0  9997
2 38337  98.2024 141.8648 0001267  79.7574 340.0398 14.57092982753939
NUSTAR                  
1 38358U 12031A   26201.91668980  .00005073  00000+0  25792-3 0  9994
2 38358   6.0249 141.0663 0008744 253.8732 322.2113 15.09070925  1300
NEOSSAT                 
1 39089U 13009D   26201.44987581  .00000056  00000+0  34019-4 0  9990
2 39089  98.4195  20.6942 0011746 142.5208 217.6799 14.35836670701519
BRITE-AUSTRIA           
1 39091U 13009F   26201.43193589  .00000073  00000+0  39374-4 0  9997
2 39091  98.4013  20.0477 0011031 136.1688 224.0376 14.36553717701822
IRIS                    
1 39197U 13033A   26201.49805018  .00000509  00000+0  64438-4 0  9997
2 39197  97.9318  40.6699 0023688 206.9802 153.0184 14.85943068705323
HISAKI (SPRINT-A)       
1 39253U 13049A   26201.27030402  .00000090  00000+0  31825-4 0  9999
2 39253  29.7218  51.8110 0136969 285.0027  73.5421 13.55547025635910
CASSIOPE                
1 39265U 13055A   26201.85119287  .00016967 -50845-6  18171-3 0  9990
2 39265  80.9140  25.7449 0281865 308.6725  48.9589 15.27605301672807
STSAT-3                 
1 39422U 13066G   26201.80343941  .00001994  00000+0  15297-3 0  9998
2 39422  97.6212 171.1491 0008780 282.4145  77.6098 15.02908108689253
SWARM B                 
1 39451U 13067A   26201.84712785  .00002109  00000+0  74254-4 0  9999
2 39451  87.7466 332.0924 0002198  87.9035 272.2466 15.28739648688382
